NORAD_CAT_ID,OBJECT_NAME,OBJECT_TYPE,EPOCH,MEAN_MOTION,ECCENTRICITY,INCLINATION,RA_OF_ASC_NODE,ARG_OF_PERICENTER,MEAN_ANOMALY,BSTAR,MEAN_MOTION_DOT,MEAN_MOTION_DDOT,TLE_LINE0,TLE_LINE1,TLE_LINE2,SEMIMAJOR_AXIS,PERIOD,APOGEE,PERIGEE,DECAYED
55271.0,STARLINK-5306,PAYLOAD,2024-08-21 13:39:34,14.98325825,0.0003029,70.0008,29.4333,267.2962,92.7851,9.5104e-05,1.042e-05,0.0,0 STARLINK-5306,1 55271U 23010C   24234.56914979  .00001042  00000-0  95104-4 0  9991,2 55271  70.0008  29.4333 0003029 267.2962  92.7851 14.98325825 87823,6950.206,96.107,574.176,569.966,0.0
55271.0,STARLINK-5306,PAYLOAD,2024-08-21 15:15:42,14.98325894,0.0003032,70.0008,29.2649,267.3227,92.7584,9.2853e-05,1.015e-05,0.0,0 STARLINK-5306,1 55271U 23010C   24234.63590996  .00001015  00000-0  92853-4 0  9996,2 55271  70.0008  29.2649 0003032 267.3227  92.7584 14.98325894 88145,6950.206,96.107,574.178,569.963,0.0
55271.0,STARLINK-5306,PAYLOAD,2024-08-21 20:04:06,14.98327833,0.0003064,70.0008,28.7601,268.5648,91.516,3.2731e-05,2.98e-06,0.0,0 STARLINK-5306,1 55271U 23010C   24234.83619047  .00000298  00000-0  32731-4 0  9998,2 55271  70.0008  28.7601 0003064 268.5648  91.5160 14.98327833 88177,6950.2,96.107,574.194,569.935,0.0
